{"type": "FeatureCollection", "features": [{"type": "Feature", "properties": {"norad_id": 24946, "name": "IRIDIUM 33", "group": "iridium-33-debris", "lat": -76.05189575687425, "lon": -100.76166850578251, "alt_km": 781.9010000413809, "timestamp": "2025-12-21T14:40:48.302973+00:00", "meta": {"OBJECT_NAME": "IRIDIUM 33", "OBJECT_ID": "1997-051C", "EPOCH": "2025-12-21T05:07:17.080032", "MEAN_MOTION": 14.35042893, "ECCENTRICITY": 0.00080457, "INCLINATION": 86.3863, "RA_OF_ASC_NODE": 64.6648, "ARG_OF_PERICENTER": 172.1605, "MEAN_ANOMALY": 187.9719, "EPHEMERIS_TYPE": 0, "CLASSIFICATION_TYPE": "U", "NORAD_CAT_ID": 24946, "ELEMENT_SET_NO": 999, "REV_AT_EPOCH": 47956, "BSTAR": 9.3365932e-05, "MEAN_MOTION_DOT": 2.86e-06, "MEAN_MOTION_DDOT": 0}, "tle": {"line1": "1 24946U 97051C   25355.21339213  .00000286  00000+0  93366-4 0  9997", "line2": "2 24946  86.3863  64.6648 0008045 172.1605 187.9719 14.35042893479566"}}, "geometry": {"type": "Point", "coordinates": [-100.76166850578251, -76.05189575687425]}}, {"type": "Feature", "properties": {"norad_id": 33773, "name": "IRIDIUM 33 DEB", "group": "iridium-33-debris", "lat": 63.99052550837894, "lon": -130.5828964284835, "alt_km": 732.2339290158952, "timestamp": "2025-12-21T14:40:48.303018+00:00", "meta": {"OBJECT_NAME": "IRIDIUM 33 DEB", "OBJECT_ID": "1997-051L", "EPOCH": "2025-12-21T05:49:35.518944", "MEAN_MOTION": 14.43273713, "ECCENTRICITY": 0.00131162, "INCLINATION": 86.4002, "RA_OF_ASC_NODE": 56.9862, "ARG_OF_PERICENTER": 121.8026, "MEAN_ANOMALY": 238.4454, "EPHEMERIS_TYPE": 0, "CLASSIFICATION_TYPE": "U", "NORAD_CAT_ID": 33773, "ELEMENT_SET_NO": 999, "REV_AT_EPOCH": 88470, "BSTAR": 0.00023360251, "MEAN_MOTION_DOT": 8.07e-06, "MEAN_MOTION_DDOT": 0}, "tle": {"line1": "1 33773U 97051L   25355.24277221  .00000807  00000+0  23360-3 0  9993", "line2": "2 33773  86.4002  56.9862 0013116 121.8026 238.4454 14.43273713884705"}}, "geometry": {"type": "Point", "coordinates": [-130.5828964284835, 63.99052550837894]}}, {"type": "Feature", "properties": {"norad_id": 33775, "name": "IRIDIUM 33 DEB", "group": "iridium-33-debris", "lat": 37.56212134759105, "lon": -137.03831492489925, "alt_km": 740.5322431166132, "timestamp": "2025-12-21T14:40:48.303036+00:00", "meta": {"OBJECT_NAME": "IRIDIUM 33 DEB", "OBJECT_ID": "1997-051N", "EPOCH": "2025-12-21T04:16:38.261568", "MEAN_MOTION": 14.41484651, "ECCENTRICITY": 0.0015071, "INCLINATION": 86.3627, "RA_OF_ASC_NODE": 45.9507, "ARG_OF_PERICENTER": 129.3749, "MEAN_ANOMALY": 284.9532, "EPHEMERIS_TYPE": 0, "CLASSIFICATION_TYPE": "U", "NORAD_CAT_ID": 33775, "ELEMENT_SET_NO": 999, "REV_AT_EPOCH": 88262, "BSTAR": 0.00021778892, "MEAN_MOTION_DOT": 7.27e-06, "MEAN_MOTION_DDOT": 0}, "tle": {"line1": "1 33775U 97051N   25355.17822062  .00000727  00000+0  21779-3 0  9999", "line2": "2 33775  86.3627  45.9507 0015071 129.3749 284.9532 14.41484651882625"}}, "geometry": {"type": "Point", "coordinates": [-137.03831492489925, 37.56212134759105]}}, {"type": "Feature", "properties": {"norad_id": 33776, "name": "IRIDIUM 33 DEB", "group": "iridium-33-debris", "lat": -86.23495629746043, "lon": -30.051160035208696, "alt_km": 774.9253743996678, "timestamp": "2025-12-21T14:40:48.303050+00:00", "meta": {"OBJECT_NAME": "IRIDIUM 33 DEB", "OBJECT_ID": "1997-051P", "EPOCH": "2025-12-21T05:21:01.511424", "MEAN_MOTION": 14.38249202, "ECCENTRICITY": 0.00153108, "INCLINATION": 86.4033, "RA_OF_ASC_NODE": 77.2134, "ARG_OF_PERICENTER": 163.1939, "MEAN_ANOMALY": 254.0485, "EPHEMERIS_TYPE": 0, "CLASSIFICATION_TYPE": "U", "NORAD_CAT_ID": 33776, "ELEMENT_SET_NO": 999, "REV_AT_EPOCH": 88204, "BSTAR": 0.00022734262, "MEAN_MOTION_DOT": 7.11e-06, "MEAN_MOTION_DDOT": 0}, "tle": {"line1": "1 33776U 97051P   25355.22293416  .00000711  00000+0  22734-3 0  9996", "line2": "2 33776  86.4033  77.2134 0015310 163.1939 254.0485 14.38249202882043"}}, "geometry": {"type": "Point", "coordinates": [-30.051160035208696, -86.23495629746043]}}, {"type": "Feature", "properties": {"norad_id": 33777, "name": "IRIDIUM 33 DEB", "group": "iridium-33-debris", "lat": -71.15849310198219, "lon": -137.95674338721136, "alt_km": 711.4254689286918, "timestamp": "2025-12-21T14:40:48.303063+00:00", "meta": {"OBJECT_NAME": "IRIDIUM 33 DEB", "OBJECT_ID": "1997-051Q", "EPOCH": "2025-12-21T03:37:46.424928", "MEAN_MOTION": 14.55666378, "ECCENTRICITY": 0.00058533, "INCLINATION": 86.3774, "RA_OF_ASC_NODE": 31.5442, "ARG_OF_PERICENTER": 212.4979, "MEAN_ANOMALY": 147.5869, "EPHEMERIS_TYPE": 0, "CLASSIFICATION_TYPE": "U", "NORAD_CAT_ID": 33777, "ELEMENT_SET_NO": 999, "REV_AT_EPOCH": 88656, "BSTAR": 0.00051926431, "MEAN_MOTION_DOT": 2.288e-05, "MEAN_MOTION_DDOT": 0}, "tle": {"line1": "1 33777U 97051Q   25355.15123177  .00002288  00000+0  51926-3 0  9991", "line2": "2 33777  86.3774  31.5442 0005853 212.4979 147.5869 14.55666378886562"}}, "geometry": {"type": "Point", "coordinates": [-137.95674338721136, -71.15849310198219]}}, {"type": "Feature", "properties": {"norad_id": 33850, "name": "IRIDIUM 33 DEB", "group": "iridium-33-debris", "lat": 35.04208963362948, "lon": -156.20755128097508, "alt_km": 739.9860694283179, "timestamp": "2025-12-21T14:40:48.303076+00:00", "meta": {"OBJECT_NAME": "IRIDIUM 33 DEB", "OBJECT_ID": "1997-051T", "EPOCH": "2025-12-20T20:29:38.135040", "MEAN_MOTION": 14.42163451, "ECCENTRICITY": 0.00130082, "INCLINATION": 86.3409, "RA_OF_ASC_NODE": 26.6904, "ARG_OF_PERICENTER": 136.6945, "MEAN_ANOMALY": 36.4511, "EPHEMERIS_TYPE": 0, "CLASSIFICATION_TYPE": "U", "NORAD_CAT_ID": 33850, "ELEMENT_SET_NO": 999, "REV_AT_EPOCH": 88269, "BSTAR": 0.00025829804, "MEAN_MOTION_DOT": 8.7e-06, "MEAN_MOTION_DDOT": 0}, "tle": {"line1": "1 33850U 97051T   25354.85391360  .00000870  00000+0  25830-3 0  9990", "line2": "2 33850  86.3409  26.6904 0013008 136.6945  36.4511 14.42163451882698"}}, "geometry": {"type": "Point", "coordinates": [-156.20755128097508, 35.04208963362948]}}, {"type": "Feature", "properties": {"norad_id": 33853, "name": "IRIDIUM 33 DEB", "group": "iridium-33-debris", "lat": -55.22308273145086, "lon": 171.7037943573813, "alt_km": 768.8357343142015, "timestamp": "2025-12-21T14:40:48.303090+00:00", "meta": {"OBJECT_NAME": "IRIDIUM 33 DEB", "OBJECT_ID": "1997-051W", "EPOCH": "2025-12-20T22:14:35.888928", "MEAN_MOTION": 13.9910315, "ECCENTRICITY": 0.0207332, "INCLINATION": 85.9999, "RA_OF_ASC_NODE": 346.2208, "ARG_OF_PERICENTER": 210.5493, "MEAN_ANOMALY": 176.3282, "EPHEMERIS_TYPE": 0, "CLASSIFICATION_TYPE": "U", "NORAD_CAT_ID": 33853, "ELEMENT_SET_NO": 999, "REV_AT_EPOCH": 85460, "BSTAR": 0.0010168, "MEAN_MOTION_DOT": 1.786e-05, "MEAN_MOTION_DDOT": 0}, "tle": {"line1": "1 33853U 97051W   25354.92680427  .00001786  00000+0  10168-2 0  9990", "line2": "2 33853  85.9999 346.2208 0207332 210.5493 176.3282 13.99103150854603"}}, "geometry": {"type": "Point", "coordinates": [171.7037943573813, -55.22308273145086]}}, {"type": "Feature", "properties": {"norad_id": 33860, "name": "IRIDIUM 33 DEB", "group": "iridium-33-debris", "lat": 15.5262222672086, "lon": -157.69635399099803, "alt_km": 674.3118755617234, "timestamp": "2025-12-21T14:40:48.303102+00:00", "meta": {"OBJECT_NAME": "IRIDIUM 33 DEB", "OBJECT_ID": "1997-051AD", "EPOCH": "2025-12-21T00:58:06.257280", "MEAN_MOTION": 14.6745799, "ECCENTRICITY": 0.0006432, "INCLINATION": 86.3822, "RA_OF_ASC_NODE": 23.5637, "ARG_OF_PERICENTER": 326.2778, "MEAN_ANOMALY": 61.8404, "EPHEMERIS_TYPE": 0, "CLASSIFICATION_TYPE": "U", "NORAD_CAT_ID": 33860, "ELEMENT_SET_NO": 999, "REV_AT_EPOCH": 88844, "BSTAR": 0.00070650265, "MEAN_MOTION_DOT": 4.021e-05, "MEAN_MOTION_DDOT": 0}, "tle": {"line1": "1 33860U 97051AD  25355.04035020  .00004021  00000+0  70650-3 0  9993", "line2": "2 33860  86.3822  23.5637 0006432 326.2778  61.8404 14.67457990888444"}}, "geometry": {"type": "Point", "coordinates": [-157.69635399099803, 15.5262222672086]}}, {"type": "Feature", "properties": {"norad_id": 33862, "name": "IRIDIUM 33 DEB", "group": "iridium-33-debris", "lat": -85.27912590300208, "lon": -96.85631608109746, "alt_km": 694.7108224735448, "timestamp": "2025-12-21T14:40:48.303113+00:00", "meta": {"OBJECT_NAME": "IRIDIUM 33 DEB", "OBJECT_ID": "1997-051AF", "EPOCH": "2025-12-21T03:56:03.630624", "MEAN_MOTION": 14.69594486, "ECCENTRICITY": 0.00526121, "INCLINATION": 86.4078, "RA_OF_ASC_NODE": 33.8153, "ARG_OF_PERICENTER": 40.9364, "MEAN_ANOMALY": 19.2005, "EPHEMERIS_TYPE": 0, "CLASSIFICATION_TYPE": "U", "NORAD_CAT_ID": 33862, "ELEMENT_SET_NO": 999, "REV_AT_EPOCH": 88947, "BSTAR": 0.00086312918, "MEAN_MOTION_DOT": 5.261e-05, "MEAN_MOTION_DDOT": 0}, "tle": {"line1": "1 33862U 97051AF  25355.16393091  .00005261  00000+0  86313-3 0  9993", "line2": "2 33862  86.4078  33.8153 0052612  40.9364  19.2005 14.69594486889471"}}, "geometry": {"type": "Point", "coordinates": [-96.85631608109746, -85.27912590300208]}}, {"type": "Feature", "properties": {"norad_id": 33866, "name": "IRIDIUM 33 DEB", "group": "iridium-33-debris", "lat": 0.15051518870162253, "lon": 89.29215749488804, "alt_km": 866.3530636288451, "timestamp": "2025-12-21T14:40:48.303125+00:00", "meta": {"OBJECT_NAME": "IRIDIUM 33 DEB", "OBJECT_ID": "1997-051AK", "EPOCH": "2025-12-21T06:30:23.838336", "MEAN_MOTION": 14.25298734, "ECCENTRICITY": 0.0115015, "INCLINATION": 86.3001, "RA_OF_ASC_NODE": 89.4265, "ARG_OF_PERICENTER": 134.3497, "MEAN_ANOMALY": 280.5396, "EPHEMERIS_TYPE": 0, "CLASSIFICATION_TYPE": "U", "NORAD_CAT_ID": 33866, "ELEMENT_SET_NO": 999, "REV_AT_EPOCH": 86932, "BSTAR": 0.0004289764, "MEAN_MOTION_DOT": 1.102e-05, "MEAN_MOTION_DDOT": 0}, "tle": {"line1": "1 33866U 97051AK  25355.27110924  .00001102  00000+0  42898-3 0  9991", "line2": "2 33866  86.3001  89.4265 0115015 134.3497 280.5396 14.25298734869320"}}, "geometry": {"type": "Point", "coordinates": [89.29215749488804, 0.15051518870162253]}}]}